ORBCOMM FM37 [-]        
1 33064U 08031E   24040.78401759  .00003323  00000+0  50847-3 0  9996
2 33064  48.4395 161.9821 0005108  62.6992  95.1768 14.75857884841395
ORBCOMM FM40 [-]        
1 33065U 08031F   24040.44469427  .00004044  00000+0  59565-3 0  9993
2 33065  48.4420 153.7997 0006360  69.9025  48.1067 14.77060315841056
VESSELSAT 1 [-]         
1 37840U 11058C   24040.70694217  .00000469  00000+0  11136-3 0  9996
2 37840  19.9604 199.3595 0013715 158.9554 201.1416 14.11112199636749
ORBCOMM FM109 [+]       
1 40086U 14040A   24040.40417541  .00001729  00000+0  42421-3 0  9997
2 40086  47.0024 184.9626 0002537 217.8129 142.2578 14.56291966509046
ORBCOMM FM107 [+]       
1 40087U 14040B   24040.43858711  .00001817  00000+0  44377-3 0  9999
2 40087  47.0040 185.7541 0001749 193.2266 166.8573 14.56292592509125
ORBCOMM FM106 [-]       
1 40088U 14040C   24040.05214256  .00002335  00000+0  44832-3 0  9990
2 40088  47.0620  47.4290 0018969 294.5127  65.3785 14.66569651510874
ORBCOMM FM111 [-]       
1 40089U 14040D   24040.17465569  .00003941  00000+0  52466-3 0  9995
2 40089  47.0055 318.5384 0033473 355.6346   4.4252 14.81012421516876
ORBCOMM FM104 [-]       
1 40090U 14040E   24040.45607789  .00001385  00000+0  35780-3 0  9990
2 40090  47.0037 213.5916 0016709 112.4056 247.8600 14.54844985508681
