<?xml version="1.0" encoding="UTF-8"?>
<ndm xmlns:xsi="http://www.w3.org/2001/XMLSchema-instance" xsi:noNamespaceSchemaLocation="https://sanaregistry.org/r/ndmxml_unqualified/ndmxml-2.0.0-master-2.0.xsd">
<omm id="CCSDS_OMM_VERS" version="2.0">
<header><CREATION_DATE/><ORIGINATOR/></header><body><segment><metadata><OBJECT_NAME>ORBCOMM FM37 [-]</OBJECT_NAME><OBJECT_ID>2008-031E</OBJECT_ID><CENTER_NAME>EARTH</CENTER_NAME><REF_FRAME>TEME</REF_FRAME><TIME_SYSTEM>UTC</TIME_SYSTEM><MEAN_ELEMENT_THEORY>SGP4</MEAN_ELEMENT_THEORY></metadata><data><meanElements><EPOCH>2024-02-09T18:48:59.119776</EPOCH><MEAN_MOTION>14.75857884</MEAN_MOTION><ECCENTRICITY>.0005108</ECCENTRICITY><INCLINATION>48.4395</INCLINATION><RA_OF_ASC_NODE>161.9821</RA_OF_ASC_NODE><ARG_OF_PERICENTER>62.6992</ARG_OF_PERICENTER><MEAN_ANOMALY>95.1768</MEAN_ANOMALY></meanElements><tleParameters><EPHEMERIS_TYPE>0</EPHEMERIS_TYPE><CLASSIFICATION_TYPE>U</CLASSIFICATION_TYPE><NORAD_CAT_ID>33064</NORAD_CAT_ID><ELEMENT_SET_NO>999</ELEMENT_SET_NO><REV_AT_EPOCH>84139</REV_AT_EPOCH><BSTAR>.50847E-3</BSTAR><MEAN_MOTION_DOT>.3323E-4</MEAN_MOTION_DOT><MEAN_MOTION_DDOT>0</MEAN_MOTION_DDOT></tleParameters></data></segment></body></omm>
<omm id="CCSDS_OMM_VERS" version="2.0">
<header><CREATION_DATE/><ORIGINATOR/></header><body><segment><metadata><OBJECT_NAME>ORBCOMM FM40 [-]</OBJECT_NAME><OBJECT_ID>2008-031F</OBJECT_ID><CENTER_NAME>EARTH</CENTER_NAME><REF_FRAME>TEME</REF_FRAME><TIME_SYSTEM>UTC</TIME_SYSTEM><MEAN_ELEMENT_THEORY>SGP4</MEAN_ELEMENT_THEORY></metadata><data><meanElements><EPOCH>2024-02-09T10:40:21.584928</EPOCH><MEAN_MOTION>14.77060315</MEAN_MOTION><ECCENTRICITY>.000636</ECCENTRICITY><INCLINATION>48.4420</INCLINATION><RA_OF_ASC_NODE>153.7997</RA_OF_ASC_NODE><ARG_OF_PERICENTER>69.9025</ARG_OF_PERICENTER><MEAN_ANOMALY>48.1067</MEAN_ANOMALY></meanElements><tleParameters><EPHEMERIS_TYPE>0</EPHEMERIS_TYPE><CLASSIFICATION_TYPE>U</CLASSIFICATION_TYPE><NORAD_CAT_ID>33065</NORAD_CAT_ID><ELEMENT_SET_NO>999</ELEMENT_SET_NO><REV_AT_EPOCH>84105</REV_AT_EPOCH><BSTAR>.59565E-3</BSTAR><MEAN_MOTION_DOT>.4044E-4</MEAN_MOTION_DOT><MEAN_MOTION_DDOT>0</MEAN_MOTION_DDOT></tleParameters></data></segment></body></omm>
<omm id="CCSDS_OMM_VERS" version="2.0">
<header><CREATION_DATE/><ORIGINATOR/></header><body><segment><metadata><OBJECT_NAME>VESSELSAT 1 [-]</OBJECT_NAME><OBJECT_ID>2011-058C</OBJECT_ID><CENTER_NAME>EARTH</CENTER_NAME><REF_FRAME>TEME</REF_FRAME><TIME_SYSTEM>UTC</TIME_SYSTEM><MEAN_ELEMENT_THEORY>SGP4</MEAN_ELEMENT_THEORY></metadata><data><meanElements><EPOCH>2024-02-09T16:57:59.803488</EPOCH><MEAN_MOTION>14.11112199</MEAN_MOTION><ECCENTRICITY>.0013715</ECCENTRICITY><INCLINATION>19.9604</INCLINATION><RA_OF_ASC_NODE>199.3595</RA_OF_ASC_NODE><ARG_OF_PERICENTER>158.9554</ARG_OF_PERICENTER><MEAN_ANOMALY>201.1416</MEAN_ANOMALY></meanElements><tleParameters><EPHEMERIS_TYPE>0</EPHEMERIS_TYPE><CLASSIFICATION_TYPE>U</CLASSIFICATION_TYPE><NORAD_CAT_ID>37840</NORAD_CAT_ID><ELEMENT_SET_NO>999</ELEMENT_SET_NO><REV_AT_EPOCH>63674</REV_AT_EPOCH><BSTAR>.11136E-3</BSTAR><MEAN_MOTION_DOT>.469E-5</MEAN_MOTION_DOT><MEAN_MOTION_DDOT>0</MEAN_MOTION_DDOT></tleParameters></data></segment></body></omm>
<omm id="CCSDS_OMM_VERS" version="2.0">
<header><CREATION_DATE/><ORIGINATOR/></header><body><segment><metadata><OBJECT_NAME>ORBCOMM FM109 [+]</OBJECT_NAME><OBJECT_ID>2014-040A</OBJECT_ID><CENTER_NAME>EARTH</CENTER_NAME><REF_FRAME>TEME</REF_FRAME><TIME_SYSTEM>UTC</TIME_SYSTEM><MEAN_ELEMENT_THEORY>SGP4</MEAN_ELEMENT_THEORY></metadata><data><meanElements><EPOCH>2024-02-09T09:42:00.755424</EPOCH><MEAN_MOTION>14.56291966</MEAN_MOTION><ECCENTRICITY>.0002537</ECCENTRICITY><INCLINATION>47.0024</INCLINATION><RA_OF_ASC_NODE>184.9626</RA_OF_ASC_NODE><ARG_OF_PERICENTER>217.8129</ARG_OF_PERICENTER><MEAN_ANOMALY>142.2578</MEAN_ANOMALY></meanElements><tleParameters><EPHEMERIS_TYPE>0</EPHEMERIS_TYPE><CLASSIFICATION_TYPE>U</CLASSIFICATION_TYPE><NORAD_CAT_ID>40086</NORAD_CAT_ID><ELEMENT_SET_NO>999</ELEMENT_SET_NO><REV_AT_EPOCH>50904</REV_AT_EPOCH><BSTAR>.42421E-3</BSTAR><MEAN_MOTION_DOT>.1729E-4</MEAN_MOTION_DOT><MEAN_MOTION_DDOT>0</MEAN_MOTION_DDOT></tleParameters></data></segment></body></omm>
<omm id="CCSDS_OMM_VERS" version="2.0">
<header><CREATION_DATE/><ORIGINATOR/></header><body><segment><metadata><OBJECT_NAME>ORBCOMM FM107 [+]</OBJECT_NAME><OBJECT_ID>2014-040B</OBJECT_ID><CENTER_NAME>EARTH</CENTER_NAME><REF_FRAME>TEME</REF_FRAME><TIME_SYSTEM>UTC</TIME_SYSTEM><MEAN_ELEMENT_THEORY>SGP4</MEAN_ELEMENT_THEORY></metadata><data><meanElements><EPOCH>2024-02-09T10:31:33.926304</EPOCH><MEAN_MOTION>14.56292592</MEAN_MOTION><ECCENTRICITY>.0001749</ECCENTRICITY><INCLINATION>47.0040</INCLINATION><RA_OF_ASC_NODE>185.7541</RA_OF_ASC_NODE><ARG_OF_PERICENTER>193.2266</ARG_OF_PERICENTER><MEAN_ANOMALY>166.8573</MEAN_ANOMALY></meanElements><tleParameters><EPHEMERIS_TYPE>0</EPHEMERIS_TYPE><CLASSIFICATION_TYPE>U</CLASSIFICATION_TYPE><NORAD_CAT_ID>40087</NORAD_CAT_ID><ELEMENT_SET_NO>999</ELEMENT_SET_NO><REV_AT_EPOCH>50912</REV_AT_EPOCH><BSTAR>.44377E-3</BSTAR><MEAN_MOTION_DOT>.1817E-4</MEAN_MOTION_DOT><MEAN_MOTION_DDOT>0</MEAN_MOTION_DDOT></tleParameters></data></segment></body></omm>
<omm id="CCSDS_OMM_VERS" version="2.0">
<header><CREATION_DATE/><ORIGINATOR/></header><body><segment><metadata><OBJECT_NAME>ORBCOMM FM106 [-]</OBJECT_NAME><OBJECT_ID>2014-040C</OBJECT_ID><CENTER_NAME>EARTH</CENTER_NAME><REF_FRAME>TEME</REF_FRAME><TIME_SYSTEM>UTC</TIME_SYSTEM><MEAN_ELEMENT_THEORY>SGP4</MEAN_ELEMENT_THEORY></metadata><data><meanElements><EPOCH>2024-02-09T01:15:05.117184</EPOCH><MEAN_MOTION>14.66569651</MEAN_MOTION><ECCENTRICITY>.0018969</ECCENTRICITY><INCLINATION>47.0620</INCLINATION><RA_OF_ASC_NODE>47.4290</RA_OF_ASC_NODE><ARG_OF_PERICENTER>294.5127</ARG_OF_PERICENTER><MEAN_ANOMALY>65.3785</MEAN_ANOMALY></meanElements><tleParameters><EPHEMERIS_TYPE>0</EPHEMERIS_TYPE><CLASSIFICATION_TYPE>U</CLASSIFICATION_TYPE><NORAD_CAT_ID>40088</NORAD_CAT_ID><ELEMENT_SET_NO>999</ELEMENT_SET_NO><REV_AT_EPOCH>51087</REV_AT_EPOCH><BSTAR>.44832E-3</BSTAR><MEAN_MOTION_DOT>.2335E-4</MEAN_MOTION_DOT><MEAN_MOTION_DDOT>0</MEAN_MOTION_DDOT></tleParameters></data></segment></body></omm>
<omm id="CCSDS_OMM_VERS" version="2.0">
<header><CREATION_DATE/><ORIGINATOR/></header><body><segment><metadata><OBJECT_NAME>ORBCOMM FM111 [-]</OBJECT_NAME><OBJECT_ID>2014-040D</OBJECT_ID><CENTER_NAME>EARTH</CENTER_NAME><REF_FRAME>TEME</REF_FRAME><TIME_SYSTEM>UTC</TIME_SYSTEM><MEAN_ELEMENT_THEORY>SGP4</MEAN_ELEMENT_THEORY></metadata><data><meanElements><EPOCH>2024-02-09T04:11:30.251616</EPOCH><MEAN_MOTION>14.81012421</MEAN_MOTION><ECCENTRICITY>.0033473</ECCENTRICITY><INCLINATION>47.0055</INCLINATION><RA_OF_ASC_NODE>318.5384</RA_OF_ASC_NODE><ARG_OF_PERICENTER>355.6346</ARG_OF_PERICENTER><MEAN_ANOMALY>4.4252</MEAN_ANOMALY></meanElements><tleParameters><EPHEMERIS_TYPE>0</EPHEMERIS_TYPE><CLASSIFICATION_TYPE>U</CLASSIFICATION_TYPE><NORAD_CAT_ID>40089</NORAD_CAT_ID><ELEMENT_SET_NO>999</ELEMENT_SET_NO><REV_AT_EPOCH>51687</REV_AT_EPOCH><BSTAR>.52466E-3</BSTAR><MEAN_MOTION_DOT>.3941E-4</MEAN_MOTION_DOT><MEAN_MOTION_DDOT>0</MEAN_MOTION_DDOT></tleParameters></data></segment></body></omm>
<omm id="CCSDS_OMM_VERS" version="2.0">
<header><CREATION_DATE/><ORIGINATOR/></header><body><segment><metadata><OBJECT_NAME>ORBCOMM FM104 [-]</OBJECT_NAME><OBJECT_ID>2014-040E</OBJECT_ID><CENTER_NAME>EARTH</CENTER_NAME><REF_FRAME>TEME</REF_FRAME><TIME_SYSTEM>UTC</TIME_SYSTEM><MEAN_ELEMENT_THEORY>SGP4</MEAN_ELEMENT_THEORY></metadata><data><meanElements><EPOCH>2024-02-09T10:56:45.129696</EPOCH><MEAN_MOTION>14.54844985</MEAN_MOTION><ECCENTRICITY>.0016709</ECCENTRICITY><INCLINATION>47.0037</INCLINATION><RA_OF_ASC_NODE>213.5916</RA_OF_ASC_NODE><ARG_OF_PERICENTER>112.4056</ARG_OF_PERICENTER><MEAN_ANOMALY>247.8600</MEAN_ANOMALY></meanElements><tleParameters><EPHEMERIS_TYPE>0</EPHEMERIS_TYPE><CLASSIFICATION_TYPE>U</CLASSIFICATION_TYPE><NORAD_CAT_ID>40090</NORAD_CAT_ID><ELEMENT_SET_NO>999</ELEMENT_SET_NO><REV_AT_EPOCH>50868</REV_AT_EPOCH><BSTAR>.3578E-3</BSTAR><MEAN_MOTION_DOT>.1385E-4</MEAN_MOTION_DOT><MEAN_MOTION_DDOT>0</MEAN_MOTION_DDOT></tleParameters></data></segment></body></omm>

</ndm>
